FLOCK 2P-4              
1 41611U 16040N   17267.73589861  .00004383  00000-0  19043-3 0  9992
2 41611  97.4518 329.7901 0012896  95.4737 264.7971 15.22752438 69810
FLOCK 2P-10             
1 41612U 16040P   17267.64820525  .00005167  00000-0  22390-3 0  9998
2 41612  97.4522 329.7820 0012664  95.8167 264.4513 15.22757598 69800
FLOCK 2P-8              
1 41613U 16040Q   17267.66462125  .00004806  00000-0  20852-3 0  9999
2 41613  97.4519 329.7377 0012806  94.9644 265.3054 15.22748196 69806
FLOCK 2P-12             
1 41614U 16040R   17267.69188679  .00004563  00000-0  19818-3 0  9992
2 41614  97.4529 329.9127 0012510  95.1924 265.0741 15.22743084 69811
FLOCK 2P-7              
1 41615U 16040S   17267.72473419  .00003469  00000-0  15134-3 0  9997
2 41615  97.4517 329.7944 0012618  96.0934 264.1740 15.22761188 69818
FLOCK 2P-5              
1 41616U 16040T   17267.70296033  .00004416  00000-0  19191-3 0  9991
2 41616  97.4527 329.8973 0012497  94.5323 265.7341 15.22743771 69792
FLOCK 2P-1              
1 41617U 16040U   17267.75698520  .00001525  00000-0  68267-4 0  9991
2 41617  97.4535 329.9801 0012201  95.3265 264.9364 15.22744375 69821
FLOCK 2P-3              
1 41618U 16040V   17267.71944737  .00003736  00000-0  16280-3 0  9995
2 41618  97.4530 329.8694 0012400  95.2616 265.0036 15.22748416 69813
BEESAT-4                
1 41619U 16040W   17267.60333316  .00002090  00000-0  96818-4 0  9997
2 41619  97.4526 328.9975 0013579  82.5718 277.7060 15.21136957 57703
3CAT-2                  
1 41732U 16051B   17267.84586319  .00001614  00000-0  67038-4 0  9997
2 41732  97.3718 183.3476 0012219 287.2001 113.5590 15.25206014 61727
FLOCK 2E'-13            
1 41761U 98067KH  17267.53116066  .00012046  00000-0  13632-3 0  9991
2 41761  51.6368 249.8165 0004956 283.7268  76.3175 15.62880703 58434
FLOCK 2E'-14            
1 41762U 98067KJ  17267.31005789  .00013618  00000-0  15115-3 0  9991
2 41762  51.6380 250.6248 0004672 285.0521  74.9957 15.63249984 58403
FLOCK 2E'-16            
1 41763U 98067KK  17267.56899782  .00014066  00000-0  15251-3 0  9992
2 41763  51.6382 248.6007 0004323 301.2596  58.7975 15.63821428 58412
FLOCK 2E'-15            
1 41764U 98067KL  17267.54880052  .00013019  00000-0  14743-3 0  9993
2 41764  51.6378 249.9634 0004687 291.7744  68.2751 15.62778272 58391
FLOCK 2E'-18            
1 41769U 98067KM  17267.53152917  .00012331  00000-0  13969-3 0  9994
2 41769  51.6376 249.8415 0004293 321.7339  38.3350 15.62831070 58396
FLOCK 2E'-17            
1 41776U 98067KN  17267.51879835  .00012997  00000-0  14619-3 0  9996
2 41776  51.6387 249.7834 0004617 322.3705  37.6966 15.62954916 58383
FLOCK 2E'-19            
1 41777U 98067KP  17267.51759484  .00019240  00000-0  18650-3 0  9991
2 41777  51.6362 245.2065 0003467 330.8889  29.1913 15.66388058 58406
FLOCK 2E'-20            
1 41782U 98067KQ  17267.82498312  .00019289  00000-0  19433-3 0  9994
2 41782  51.6375 245.0503 0003474 329.4365  30.6428 15.65415537 58301
CANX-7                  
1 41788U 16059F   17267.98793584  .00005299  00000-0  97461-3 0  9990
2 41788  98.1846 329.2181 0034619 209.0665 150.8625 14.65657306 53203
ALSAT 1N                
1 41789U 16059G   17267.86306374  .00000132  00000-0  34289-4 0  9996
2 41789  98.1574 328.8486 0027749 199.1001 160.9137 14.64078452 53190
RAVAN                   
1 41849U 16067B   17267.74651213  .00000870  00000-0  80481-4 0  9998
2 41849  97.9429 347.4462 0007868 334.1408  25.9419 14.97194789 47404
CELTEE 1                
1 41850U 16067C   17267.75094481  .00000243  00000-0  26660-4 0  9992
2 41850  97.9423 347.2773 0008134 334.2501  25.8314 14.96623302 47393
OPTICUBE 04             
1 41851U 16067D   17267.15984044  .00000403  00000-0  40779-4 0  9995
2 41851  97.9423 346.6512 0008160 338.6512  21.4367 14.96534424 47304
AEROCUBE 8D             
1 41852U 16067E   17267.76091409  .00000630  00000-0  61121-4 0  9993
2 41852  97.9436 347.1488 0008862 335.3487  24.7309 14.96276867 47385
AEROCUBE 8C             
1 41853U 16067F   17267.76869800  .00000853  00000-0  80965-4 0  9996
2 41853  97.9439 347.1368 0009209 336.9607  23.1199 14.96242215 47383
PROMETHEUS 2-1          
1 41854U 16067G   17267.18324748  .00000735  00000-0  70459-4 0  9996
2 41854  97.9446 346.5116 0009689 339.2627  20.8199 14.96238194 47291
PROMETHEUS 2-3          
1 41855U 16067H   17267.78703115  .00000573  00000-0  56140-4 0  9993
2 41855  97.9448 347.1239 0009872 337.2385  22.8396 14.96232463 47384
LEMUR-2-XIAOQING        
1 41871U 16062C   17267.50914310  .00002461  00000-0  11768-3 0  9991
2 41871  51.6468 335.0853 0003806 228.2914 238.1890 15.22864512 46079
LEMUR-2-SOKOLSKY        
1 41872U 16062D   17267.63462919  .00002641  00000-0  12502-3 0  9996
2 41872  51.6642 334.2580 0004325 237.6941 278.4715 15.22923851 46089
LEMUR-2-ANUBHAVTHAKUR   
1 41873U 16062E   17267.68491142  .00001661  00000-0  86655-4 0  9994
2 41873  51.6384 335.3146 0005503 225.9273 270.8964 15.21749780 46066
LEMUR-2-WINGO           
1 41874U 16062F   17267.67692494  .00002514  00000-0  12125-3 0  9995
2 41874  51.6304 334.5196 0007018 198.4913 297.0557 15.22474470 46086
STARS-C                 
1 41895U 98067KR  17267.55915438  .00045911  00000-0  40711-3 0  9996
2 41895  51.6354 250.7476 0004079  13.7799 346.3308 15.68094563 43540
TANCREDO-1              
1 41931U 98067KT  17267.29167550  .00235900  00000-0  91723-3 0  9990
2 41931  51.6285 242.0928 0002607  56.1155 304.0097 15.85923787 39204
ITF-2                   
1 41932U 98067KU  17267.34079893  .00020743  00000-0  23513-3 0  9998
2 41932  51.6394 256.0969 0003582 295.7626  64.2998 15.62346727 39026
WASEDA-SAT3             
1 41933U 98067KV  17267.78101837  .00025304  00000-0  27344-3 0  9995
2 41933  51.6374 253.0057 0003385 304.7173  55.3503 15.63446472 39100
AOBA-VELOX 3            
1 41935U 98067KX  17267.43014530  .00023430  00000-0  25777-3 0  9998
2 41935  51.6387 255.1860 0003072 306.9617  53.1096 15.63035968 39142
OSNSAT                  
1 41939U 98067KZ  17267.32766651  .00061291  00000-0  46975-3 0  9998
2 41939  51.6350 249.1839 0002761 331.8466  28.2383 15.71501430 38465
FLOCK 3P-8              
1 41951U 17008D   17267.59927142  .00004881  00000-0  21003-3 0  9998
2 41951  97.4855 328.6204 0008095 192.4787 167.6251 15.23071892 33669
FLOCK 3P-51             
1 41952U 17008E   17267.56959277  .00003674  00000-0  15887-3 0  9992
2 41952  97.4860 328.6776 0007538 212.2245 147.8532 15.23078293 33665
FLOCK 3P-37             
1 41953U 17008F   17267.52040569  .00003622  00000-0  15465-3 0  9999
2 41953  97.4860 328.7349 0006776 217.0310 143.0460 15.23521454 33662
INS-1B                  
1 41954U 17008G   17267.55329685  .00001890  00000-0  85643-4 0  9993
2 41954  97.4836 328.3141 0009221 195.0261 165.0702 15.22077660 33588
FLOCK 3P-19             
1 41955U 17008H   17267.61475679  .00004032  00000-0  17393-3 0  9993
2 41955  97.4850 328.5881 0008924 193.4604 166.6396 15.23088613 33587
FLOCK 3P-24             
1 41956U 17008J   17267.61172388  .00002496  00000-0  10880-3 0  9991
2 41956  97.4850 328.5913 0008968 190.6602 169.4446 15.23101110 33663
FLOCK 3P-18             
1 41957U 17008K   17267.61265877  .00001817  00000-0  79988-4 0  9999
2 41957  97.4853 328.5937 0008928 192.8109 167.2902 15.23127488 33507
FLOCK 3P-22             
1 41958U 17008L   17267.81607349  .00003875  00000-0  16727-3 0  9993
2 41958  97.4850 328.7837 0008774 191.3070 168.7970 15.23090542 33529
FLOCK 3P-21             
1 41959U 17008M   17267.60714063  .00004222  00000-0  18204-3 0  9992
2 41959  97.4857 328.6153 0008520 193.9797 166.1205 15.23082292 33504
FLOCK 3P-28             
1 41960U 17008N   17267.60535622  .00002854  00000-0  12414-3 0  9992
2 41960  97.4856 328.6129 0008402 192.2905 167.8127 15.23053640 33584
FLOCK 3P-26             
1 41961U 17008P   17267.54856931  .00003979  00000-0  17171-3 0  9999
2 41961  97.4854 328.5334 0008639 191.6665 168.4372 15.23085552 33494
FLOCK 3P-17             
1 41962U 17008Q   17267.59482966  .00003708  00000-0  16035-3 0  9996
2 41962  97.4854 328.6257 0008347 194.3101 165.7900 15.23059131 33458
FLOCK 3P-27             
1 41963U 17008R   17267.55707245  .00003806  00000-0  16450-3 0  9993
2 41963  97.4854 328.5248 0008769 192.6057 167.4961 15.23054823 33490
FLOCK 3P-25             
1 41964U 17008S   17267.60835580  .00003375  00000-0  14591-3 0  9999
2 41964  97.4854 328.6033 0008381 192.2543 167.8491 15.23131174 33486
FLOCK 3P-4              
1 41965U 17008T   17267.60239742  .00003079  00000-0  13357-3 0  9998
2 41965  97.4856 328.6187 0008248 193.5274 166.5743 15.23090106 33582
FLOCK 3P-2              
1 41966U 17008U   17267.80047907  .00003238  00000-0  14028-3 0  9994
2 41966  97.4858 328.8185 0008229 190.9136 169.1923 15.23099560 33539
FLOCK 3P-1              
1 41967U 17008V   17267.55316863  .00003334  00000-0  14539-3 0  9991
2 41967  97.4860 328.5400 0008349 193.7218 166.3793 15.22845596 33491
FLOCK 3P-3              
1 41968U 17008W   17267.60615952  .00003573  00000-0  15458-3 0  9995
2 41968  97.4854 328.6123 0008307 192.1059 167.9980 15.23068022 33585
FLOCK 3P-6              
1 41969U 17008X   17267.60106339  .00004337  00000-0  18667-3 0  9994
2 41969  97.4857 328.6258 0008099 191.3137 168.7918 15.23122624 33493
FLOCK 3P-7              
1 41970U 17008Y   17267.51728746  .00001690  00000-0  74586-4 0  9990
2 41970  97.4862 328.5852 0008059 195.4763 164.6229 15.23130803 33483
FLOCK 3P-5              
1 41971U 17008Z   17267.59776845  .00004892  00000-0  21062-3 0  9999
2 41971  97.4860 328.6355 0008067 194.4458 165.6549 15.23049857 33439
FLOCK 3P-12             
1 41972U 17008AA  17267.85881650  .00005016  00000-0  21606-3 0  9993
2 41972  97.4858 328.8984 0007915 193.3210 166.7819 15.23024938 33628
